start=new Date('2022-01-18T00:00:00.000Z').valueOf();
sats=[{"NORAD_CAT_ID":"47817","EPOCH":"2022-01-17T21:33:12.294144","DECAY_DATE":null,"PERIAPSIS":"545.366","SEMIMAJOR_AXIS":"6925.330","OBJECT_TYPE":"PAYLOAD","BSTAR":"0.00015925000000","RA_OF_ASC_NODE":"198.3038","ARG_OF_PERICENTER":"77.2958","CENTER_NAME":"EARTH","ECCENTRICITY":"0.00026400","TIME_SYSTEM":"UTC","MEAN_MOTION":"15.06406128","FILE":"3276075","APOAPSIS":"549.023","REF_FRAME":"TEME","RCS_SIZE":"LARGE","MEAN_ANOMALY":"282.8326","CLASSIFICATION_TYPE":"U","OBJECT_NAME":"STARLINK-2400","COUNTRY_CODE":"US","REV_AT_EPOCH":"4872","TLE_LINE1":"1 47817U 21018AG  22017.89805896  .00002091  00000-0  15925-3 0  9991","MEAN_MOTION_DDOT":"0.0000000000000","MEAN_MOTION_DOT":"0.00002091","LAUNCH_DATE":"2021-03-11","MEAN_ELEMENT_THEORY":"SGP4","EPHEMERIS_TYPE":"0","OBJECT_ID":"2021-018AG","PERIOD":"95.592","ELEMENT_SET_NO":"999","INCLINATION":"53.0539","SITE":"AFETR","TLE_LINE2":"2 47817  53.0539 198.3038 0002640  77.2958 282.8326 15.06406128 48721","GP_ID":"194088789"},{"PERIAPSIS":"545.513","BSTAR":"0.00004122700000","SEMIMAJOR_AXIS":"6925.371","OBJECT_TYPE":"PAYLOAD","EPOCH":"2022-01-17T19:01:16.538592","NORAD_CAT_ID":"47818","DECAY_DATE":null,"TIME_SYSTEM":"UTC","FILE":"3276075","MEAN_MOTION":"15.06392621","ECCENTRICITY":"0.00024880","ARG_OF_PERICENTER":"76.7570","RA_OF_ASC_NODE":"203.7924","CENTER_NAME":"EARTH","OBJECT_NAME":"STARLINK-2401","COUNTRY_CODE":"US","APOAPSIS":"548.959","RCS_SIZE":"LARGE","MEAN_ANOMALY":"283.3696","CLASSIFICATION_TYPE":"U","REF_FRAME":"TEME","SITE":"AFETR","PERIOD":"95.593","ELEMENT_SET_NO":"999","INCLINATION":"53.0547","TLE_LINE2":"2 47818  53.0547 203.7924 0002488  76.7570 283.3696 15.06392621 48649","GP_ID":"194088538","TLE_LINE1":"1 47818U 21018AH  22017.79255253  .00000332  00000-0  41227-4 0  9998","REV_AT_EPOCH":"4864","MEAN_ELEMENT_THEORY":"SGP4","LAUNCH_DATE":"2021-03-11","EPHEMERIS_TYPE":"0","OBJECT_ID":"2021-018AH","MEAN_MOTION_DDOT":"0.0000000000000","MEAN_MOTION_DOT":"0.00000332"},{"PERIAPSIS":"545.599","SEMIMAJOR_AXIS":"6925.355","OBJECT_TYPE":"PAYLOAD","BSTAR":"0.00007126100000","EPOCH":"2022-01-17T18:27:25.359264","NORAD_CAT_ID":"47819","DECAY_DATE":null,"TIME_SYSTEM":"UTC","MEAN_MOTION":"15.06397954","FILE":"3276075","RA_OF_ASC_NODE":"198.9031","ARG_OF_PERICENTER":"77.6656","CENTER_NAME":"EARTH","ECCENTRICITY":"0.00023400","OBJECT_NAME":"STARLINK-2402","COUNTRY_CODE":"US","APOAPSIS":"548.840","REF_FRAME":"TEME","MEAN_ANOMALY":"282.4594","RCS_SIZE":"MEDIUM","CLASSIFICATION_TYPE":"U","PERIOD":"95.592","ELEMENT_SET_NO":"999","INCLINATION":"53.0516","SITE":"AFETR","TLE_LINE2":"2 47819  53.0516 198.9031 0002340  77.6656 282.4594 15.06397954 48777","GP_ID":"194087788","REV_AT_EPOCH":"4877","TLE_LINE1":"1 47819U 21018AJ  22017.76904351  .00000780  00000-0  71261-4 0  9994","MEAN_MOTION_DDOT":"0.0000000000000","MEAN_MOTION_DOT":"0.00000780","LAUNCH_DATE":"2021-03-11","EPHEMERIS_TYPE":"0","MEAN_ELEMENT_THEORY":"SGP4","OBJECT_ID":"2021-018AJ"},{"TIME_SYSTEM":"UTC","FILE":"3276075","MEAN_MOTION":"15.06401958","ECCENTRICITY":"0.00024210","RA_OF_ASC_NODE":"208.3972","ARG_OF_PERICENTER":"74.1701","CENTER_NAME":"EARTH","PERIAPSIS":"545.531","BSTAR":"-0.00000244440000","SEMIMAJOR_AXIS":"6925.343","OBJECT_TYPE":"PAYLOAD","EPOCH":"2022-01-17T21:10:38.159040","NORAD_CAT_ID":"47820","DECAY_DATE":null,"SITE":"AFETR","PERIOD":"95.592","ELEMENT_SET_NO":"999","INCLINATION":"53.0537","TLE_LINE2":"2 47820  53.0537 208.3972 0002421  74.1701 285.9555 15.06401958 48646","GP_ID":"194088038","TLE_LINE1":"1 47820U 21018AK  22017.88238610 -.00000318  00000-0 -24444-5 0  9998","REV_AT_EPOCH":"4864","LAUNCH_DATE":"2021-03-11","EPHEMERIS_TYPE":"0","MEAN_ELEMENT_THEORY":"SGP4","OBJECT_ID":"2021-018AK","MEAN_MOTION_DDOT":"0.0000000000000","MEAN_MOTION_DOT":"-0.00000318","OBJECT_NAME":"STARLINK-2403","COUNTRY_CODE":"US","APOAPSIS":"548.884","RCS_SIZE":"LARGE","MEAN_ANOMALY":"285.9555","CLASSIFICATION_TYPE":"U","REF_FRAME":"TEME"},{"NORAD_CAT_ID":"47821","EPOCH":"2022-01-17T20:38:45.770208","DECAY_DATE":null,"PERIAPSIS":"545.364","OBJECT_TYPE":"PAYLOAD","SEMIMAJOR_AXIS":"6925.348","BSTAR":"-0.00001689900000","CENTER_NAME":"EARTH","ARG_OF_PERICENTER":"78.5062","RA_OF_ASC_NODE":"198.4926","ECCENTRICITY":"0.00026690","TIME_SYSTEM":"UTC","MEAN_MOTION":"15.06400239","FILE":"3276075","APOAPSIS":"549.061","REF_FRAME":"TEME","CLASSIFICATION_TYPE":"U","RCS_SIZE":"LARGE","MEAN_ANOMALY":"281.6227","OBJECT_NAME":"STARLINK-2406","COUNTRY_CODE":"US","REV_AT_EPOCH":"4872","TLE_LINE1":"1 47821U 21018AL  22017.86025197 -.00000534  00000-0 -16899-4 0  9995","MEAN_MOTION_DOT":"-0.00000534","MEAN_MOTION_DDOT":"0.0000000000000","OBJECT_ID":"2021-018AL","LAUNCH_DATE":"2021-03-11","EPHEMERIS_TYPE":"0","MEAN_ELEMENT_THEORY":"SGP4","PERIOD":"95.592","ELEMENT_SET_NO":"999","INCLINATION":"53.0521","SITE":"AFETR","GP_ID":"194088289","TLE_LINE2":"2 47821  53.0521 198.4926 0002669  78.5062 281.6227 15.06400239 48729"},{"MEAN_MOTION":"15.06388923","FILE":"3276075","TIME_SYSTEM":"UTC","CENTER_NAME":"EARTH","ARG_OF_PERICENTER":"70.8235","RA_OF_ASC_NODE":"208.4334","ECCENTRICITY":"0.00025190","OBJECT_TYPE":"PAYLOAD","SEMIMAJOR_AXIS":"6925.383","BSTAR":"-0.00012775000000","PERIAPSIS":"545.503","DECAY_DATE":null,"NORAD_CAT_ID":"47822","EPOCH":"2022-01-17T20:54:43.566912","GP_ID":"194089039","TLE_LINE2":"2 47822  53.0546 208.4334 0002519  70.8235 289.3027 15.06388923 48596","ELEMENT_SET_NO":"999","PERIOD":"95.593","INCLINATION":"53.0546","SITE":"AFETR","MEAN_MOTION_DOT":"-0.00002184","MEAN_MOTION_DDOT":"0.0000000000000","OBJECT_ID":"2021-018AM","EPHEMERIS_TYPE":"0","LAUNCH_DATE":"2021-03-11","MEAN_ELEMENT_THEORY":"SGP4","REV_AT_EPOCH":"4859","TLE_LINE1":"1 47822U 21018AM  22017.87133758 -.00002184  00000-0 -12775-3 0  9991","COUNTRY_CODE":"US","OBJECT_NAME":"STARLINK-2407","REF_FRAME":"TEME","CLASSIFICATION_TYPE":"U","RCS_SIZE":"LARGE","MEAN_ANOMALY":"289.3027","APOAPSIS":"548.992"},{"LAUNCH_DATE":"2021-03-11","EPHEMERIS_TYPE":"0","MEAN_ELEMENT_THEORY":"SGP4","OBJECT_ID":"2021-018AN","MEAN_MOTION_DDOT":"0.0000000000000","MEAN_MOTION_DOT":"0.00000036","TLE_LINE1":"1 47823U 21018AN  22017.88700335  .00000036  00000-0  21328-4 0  9991","REV_AT_EPOCH":"4873","TLE_LINE2":"2 47823  53.0550 198.3736 0002388  73.1550 286.9701 15.06396412 48735","GP_ID":"194087288","SITE":"AFETR","PERIOD":"95.592","ELEMENT_SET_NO":"999","INCLINATION":"53.0550","RCS_SIZE":"LARGE","MEAN_ANOMALY":"286.9701","CLASSIFICATION_TYPE":"U","REF_FRAME":"TEME","APOAPSIS":"548.878","COUNTRY_CODE":"US","OBJECT_NAME":"STARLINK-2408","ECCENTRICITY":"0.00023880","RA_OF_ASC_NODE":"198.3736","ARG_OF_PERICENTER":"73.1550","CENTER_NAME":"EARTH","FILE":"3276075","MEAN_MOTION":"15.06396412","TIME_SYSTEM":"UTC","DECAY_DATE":null,"NORAD_CAT_ID":"47823","EPOCH":"2022-01-17T21:17:17.089440","BSTAR":"0.00002132800000","SEMIMAJOR_AXIS":"6925.360","OBJECT_TYPE":"PAYLOAD","PERIAPSIS":"545.571"},{"INCLINATION":"53.0535","PERIOD":"95.593","ELEMENT_SET_NO":"999","SITE":"AFETR","GP_ID":"194087538","TLE_LINE2":"2 47824  53.0535 198.4212 0002280  72.9498 287.1740 15.06394126 48723","REV_AT_EPOCH":"4872","TLE_LINE1":"1 47824U 21018AP  22017.87594327  .00001082  00000-0  91532-4 0  9999","MEAN_MOTION_DOT":"0.00001082","MEAN_MOTION_DDOT":"0.0000000000000","OBJECT_ID":"2021-018AP","LAUNCH_DATE":"2021-03-11","EPHEMERIS_TYPE":"0","MEAN_ELEMENT_THEORY":"SGP4","OBJECT_NAME":"STARLINK-2409","COUNTRY_CODE":"US","APOAPSIS":"548.811","REF_FRAME":"TEME","CLASSIFICATION_TYPE":"U","MEAN_ANOMALY":"287.1740","RCS_SIZE":"LARGE","TIME_SYSTEM":"UTC","MEAN_MOTION":"15.06394126","FILE":"3276075","CENTER_NAME":"EARTH","ARG_OF_PERICENTER":"72.9498","RA_OF_ASC_NODE":"198.4212","ECCENTRICITY":"0.00022800","PERIAPSIS":"545.653","OBJECT_TYPE":"PAYLOAD","SEMIMAJOR_AXIS":"6925.367","BSTAR":"0.00009153200000","NORAD_CAT_ID":"47824","EPOCH":"2022-01-17T21:01:21.498528","DECAY_DATE":null},{"MEAN_MOTION_DOT":"0.00001103","MEAN_MOTION_DDOT":"0.0000000000000","OBJECT_ID":"2021-018AQ","LAUNCH_DATE":"2021-03-11","EPHEMERIS_TYPE":"0","MEAN_ELEMENT_THEORY":"SGP4","REV_AT_EPOCH":"4873","TLE_LINE1":"1 47825U 21018AQ  22017.89437627  .00001103  00000-0  92950-4 0  9990","GP_ID":"194088790","TLE_LINE2":"2 47825  53.0556 198.3293 0001989  80.2491 279.8723 15.06393476 48732","INCLINATION":"53.0556","PERIOD":"95.593","ELEMENT_SET_NO":"999","SITE":"AFETR","REF_FRAME":"TEME","CLASSIFICATION_TYPE":"U","RCS_SIZE":"LARGE","MEAN_ANOMALY":"279.8723","APOAPSIS":"548.611","COUNTRY_CODE":"US","OBJECT_NAME":"STARLINK-2410","CENTER_NAME":"EARTH","RA_OF_ASC_NODE":"198.3293","ARG_OF_PERICENTER":"80.2491","ECCENTRICITY":"0.00019890","MEAN_MOTION":"15.06393476","FILE":"3276075","TIME_SYSTEM":"UTC","DECAY_DATE":null,"EPOCH":"2022-01-17T21:27:54.109728","NORAD_CAT_ID":"47825","OBJECT_TYPE":"PAYLOAD","SEMIMAJOR_AXIS":"6925.369","BSTAR":"0.00009295000000","PERIAPSIS":"545.856"},{"BSTAR":"0.00009281400000","SEMIMAJOR_AXIS":"6925.347","OBJECT_TYPE":"PAYLOAD","PERIAPSIS":"545.502","DECAY_DATE":null,"EPOCH":"2022-01-17T21:22:35.153760","NORAD_CAT_ID":"47826","FILE":"3276075","MEAN_MOTION":"15.06400412","TIME_SYSTEM":"UTC","ECCENTRICITY":"0.00024700","RA_OF_ASC_NODE":"198.3577","ARG_OF_PERICENTER":"76.5455","CENTER_NAME":"EARTH","COUNTRY_CODE":"US","OBJECT_NAME":"STARLINK-2411","MEAN_ANOMALY":"283.5810","RCS_SIZE":"LARGE","CLASSIFICATION_TYPE":"U","REF_FRAME":"TEME","APOAPSIS":"548.923","TLE_LINE2":"2 47826  53.0550 198.3577 0002470  76.5455 283.5810 15.06400412 48734","GP_ID":"194088539","SITE":"AFETR","ELEMENT_SET_NO":"999","PERIOD":"95.592","INCLINATION":"53.0550","LAUNCH_DATE":"2021-03-11","EPHEMERIS_TYPE":"0","MEAN_ELEMENT_THEORY":"SGP4","OBJECT_ID":"2021-018AR","MEAN_MOTION_DDOT":"0.0000000000000","MEAN_MOTION_DOT":"0.00001101","TLE_LINE1":"1 47826U 21018AR  22017.89068465  .00001101  00000-0  92814-4 0  9998","REV_AT_EPOCH":"4873"}];
